IRIDIUM 921 [-]         
1 24873U 97034E   24043.91277138  .00032599  00000+0  10639-2 0  9996
2 24873  86.3893 349.7219 0006370  46.9458 313.2323 15.31614802455967
IRIDIUM 26 [-]          
1 24903U 97043A   24043.85733458  .00000767  00000+0  25641-3 0  9997
2 24903  86.3986 316.3704 0001926  83.5666 276.5750 14.36203561386343
IRIDIUM 22 [-]          
1 24907U 97043E   24043.81636090  .00000880  00000+0  30168-3 0  9997
2 24907  86.3993 319.5244 0002172  84.3883 275.7561 14.35101542386428
DUMMY MASS 1 [-]        
1 24925U 97048A   24043.95399105  .00000946  00000+0  10497-3 0  9996
2 24925  86.3380   1.8326 0009269  85.0806 275.1477 14.86044029432308
DUMMY MASS 2 [-]        
1 24926U 97048B   24043.90296279  .00000921  00000+0  10261-3 0  9992
2 24926  86.3379   3.3761 0010068  93.5103 266.7273 14.85803490432089
IRIDIUM 29 [-]          
1 24944U 97051A   24043.92854711  .00000753  00000+0  25484-3 0  9995
2 24944  86.4004 349.4058 0002416  83.5521 276.5951 14.35553508382914
IRIDIUM 33 [-]          
1 24946U 97051C   24043.90960010  .00000612  00000+0  21134-3 0  9997
2 24946  86.3919 348.6759 0006095 228.6440 131.4232 14.34256918382452
IRIDIUM 28 [-]          
1 24948U 97051E   24043.87591403  .00000854  00000+0  28459-3 0  9996
2 24948  86.4009 347.2264 0001760  88.6339 271.5059 14.36501662383439
